{
  "type": "FeatureCollection",
  "features": [
    {
      "type": "Feature",
      "properties": {
        "norad_id": 40797,
        "name": "COSMOS 2251 DEB",
        "group": "cosmos-2251-debris",
        "lat": 52.26622683945655,
        "lon": 123.35008016268743,
        "alt_km": 491.3338831190349,
        "timestamp": "2025-12-09T18:55:17.630120+00:00",
        "meta_object_name": "COSMOS 2251 DEB",
        "meta_object_id": "1993-036BWA",
        "meta_epoch": "2025-11-19T18:43:16.602528",
        "meta_mean_motion": 15.10509474,
        "meta_eccentricity": 0.00703947,
        "meta_inclination": 73.92,
        "meta_ra_of_asc_node": 143.0892,
        "meta_arg_of_pericenter": 60.6639,
        "meta_mean_anomaly": 300.156,
        "meta_ephemeris_type": 0,
        "meta_classification_type": "U",
        "meta_norad_cat_id": 40797,
        "meta_element_set_no": 999,
        "meta_rev_at_epoch": 64297,
        "meta_bstar": 0.00072810385,
        "meta_mean_motion_dot": 0.00012707,
        "meta_mean_motion_ddot": 0,
        "tle_line1": "1 40797U 93036BWA 25323.78005327  .00012707  00000+0  72810-3 0  9992",
        "tle_line2": "2 40797  73.9200 143.0892 0070394  60.6639 300.1560 15.10509474642979"
      },
      "geometry": {
        "type": "Point",
        "coordinates": [
          123.35008016268743,
          52.26622683945655
        ]
      }
    },
    {
      "type": "Feature",
      "properties": {
        "norad_id": 40799,
        "name": "COSMOS 2251 DEB",
        "group": "cosmos-2251-debris",
        "lat": -38.177198354127654,
        "lon": -62.52310651662537,
        "alt_km": 632.6599564238177,
        "timestamp": "2025-12-09T18:55:17.630130+00:00",
        "meta_object_name": "COSMOS 2251 DEB",
        "meta_object_id": "1993-036BWC",
        "meta_epoch": "2025-12-09T01:53:34.430208",
        "meta_mean_motion": 14.96607637,
        "meta_eccentricity": 0.01188532,
        "meta_inclination": 73.9255,
        "meta_ra_of_asc_node": 105.8165,
        "meta_arg_of_pericenter": 348.6174,
        "meta_mean_anomaly": 11.2323,
        "meta_ephemeris_type": 0,
        "meta_classification_type": "U",
        "meta_norad_cat_id": 40799,
        "meta_element_set_no": 999,
        "meta_rev_at_epoch": 49922,
        "meta_bstar": 0.00041300806,
        "meta_mean_motion_dot": 5.391e-05,
        "meta_mean_motion_ddot": 0,
        "tle_line1": "1 40799U 93036BWC 25343.07887072  .00005391  00000+0  41301-3 0  9995",
        "tle_line2": "2 40799  73.9255 105.8165 0118853 348.6174  11.2323 14.96607637499224"
      },
      "geometry": {
        "type": "Point",
        "coordinates": [
          -62.52310651662537,
          -38.177198354127654
        ]
      }
    },
    {
      "type": "Feature",
      "properties": {
        "norad_id": 40802,
        "name": "COSMOS 2251 DEB",
        "group": "cosmos-2251-debris",
        "lat": 64.77049665297886,
        "lon": -58.59751258741553,
        "alt_km": 668.0077782210292,
        "timestamp": "2025-12-09T18:55:17.630140+00:00",
        "meta_object_name": "COSMOS 2251 DEB",
        "meta_object_id": "1993-036BWF",
        "meta_epoch": "2025-12-07T04:40:18.782112",
        "meta_mean_motion": 14.77524625,
        "meta_eccentricity": 0.00633068,
        "meta_inclination": 74.039,
        "meta_ra_of_asc_node": 163.8903,
        "meta_arg_of_pericenter": 263.7276,
        "meta_mean_anomaly": 95.6686,
        "meta_ephemeris_type": 0,
        "meta_classification_type": "U",
        "meta_norad_cat_id": 40802,
        "meta_element_set_no": 999,
        "meta_rev_at_epoch": 64327,
        "meta_bstar": 0.0010813735,
        "meta_mean_motion_dot": 7.951e-05,
        "meta_mean_motion_ddot": 0,
        "tle_line1": "1 40802U 93036BWF 25341.19466183  .00007951  00000+0  10814-2 0  9995",
        "tle_line2": "2 40802  74.0390 163.8903 0063306 263.7276  95.6686 14.77524625643275"
      },
      "geometry": {
        "type": "Point",
        "coordinates": [
          -58.59751258741553,
          64.77049665297886
        ]
      }
    },
    {
      "type": "Feature",
      "properties": {
        "norad_id": 40803,
        "name": "COSMOS 2251 DEB",
        "group": "cosmos-2251-debris",
        "lat": -43.262849117482986,
        "lon": -106.88152601068225,
        "alt_km": 708.8473448787472,
        "timestamp": "2025-12-09T18:55:17.630150+00:00",
        "meta_object_name": "COSMOS 2251 DEB",
        "meta_object_id": "1993-036BWG",
        "meta_epoch": "2025-12-05T22:55:29.451072",
        "meta_mean_motion": 14.51792027,
        "meta_eccentricity": 0.00362816,
        "meta_inclination": 74.0122,
        "meta_ra_of_asc_node": 64.6912,
        "meta_arg_of_pericenter": 281.8159,
        "meta_mean_anomaly": 77.8934,
        "meta_ephemeris_type": 0,
        "meta_classification_type": "U",
        "meta_norad_cat_id": 40803,
        "meta_element_set_no": 999,
        "meta_rev_at_epoch": 58654,
        "meta_bstar": 0.00062935795,
        "meta_mean_motion_dot": 2.525e-05,
        "meta_mean_motion_ddot": 0,
        "tle_line1": "1 40803U 93036BWG 25339.95520198  .00002525  00000+0  62936-3 0  9999",
        "tle_line2": "2 40803  74.0122  64.6912 0036281 281.8159  77.8934 14.51792027586549"
      },
      "geometry": {
        "type": "Point",
        "coordinates": [
          -106.88152601068225,
          -43.262849117482986
        ]
      }
    },
    {
      "type": "Feature",
      "properties": {
        "norad_id": 40808,
        "name": "COSMOS 2251 DEB",
        "group": "cosmos-2251-debris",
        "lat": -24.22959997455368,
        "lon": 143.76897996607667,
        "alt_km": 680.2789608681305,
        "timestamp": "2025-12-09T18:55:17.630160+00:00",
        "meta_object_name": "COSMOS 2251 DEB",
        "meta_object_id": "1993-036BWM",
        "meta_epoch": "2025-12-09T10:59:32.646336",
        "meta_mean_motion": 14.67380628,
        "meta_eccentricity": 0.00096177,
        "meta_inclination": 74.0414,
        "meta_ra_of_asc_node": 151.8055,
        "meta_arg_of_pericenter": 188.7618,
        "meta_mean_anomaly": 201.472,
        "meta_ephemeris_type": 0,
        "meta_classification_type": "U",
        "meta_norad_cat_id": 40808,
        "meta_element_set_no": 999,
        "meta_rev_at_epoch": 63571,
        "meta_bstar": 0.0023148185,
        "meta_mean_motion_dot": 0.00013088,
        "meta_mean_motion_ddot": 0,
        "tle_line1": "1 40808U 93036BWM 25343.45801674  .00013088  00000+0  23148-2 0  9992",
        "tle_line2": "2 40808  74.0414 151.8055 0009617 188.7618 201.4720 14.67380628635712"
      },
      "geometry": {
        "type": "Point",
        "coordinates": [
          143.76897996607667,
          -24.22959997455368
        ]
      }
    },
    {
      "type": "Feature",
      "properties": {
        "norad_id": 40810,
        "name": "COSMOS 2251 DEB",
        "group": "cosmos-2251-debris",
        "lat": -14.490393326454955,
        "lon": 76.11461009398509,
        "alt_km": 706.8969932655536,
        "timestamp": "2025-12-09T18:55:17.630170+00:00",
        "meta_object_name": "COSMOS 2251 DEB",
        "meta_object_id": "1993-036BWP",
        "meta_epoch": "2025-12-08T16:39:16.874784",
        "meta_mean_motion": 14.58674217,
        "meta_eccentricity": 0.00186464,
        "meta_inclination": 74.0365,
        "meta_ra_of_asc_node": 82.4401,
        "meta_arg_of_pericenter": 234.2275,
        "meta_mean_anomaly": 125.7157,
        "meta_ephemeris_type": 0,
        "meta_classification_type": "U",
        "meta_norad_cat_id": 40810,
        "meta_element_set_no": 999,
        "meta_rev_at_epoch": 61624,
        "meta_bstar": 0.0013703494,
        "meta_mean_motion_dot": 6.381e-05,
        "meta_mean_motion_ddot": 0,
        "tle_line1": "1 40810U 93036BWP 25342.69394531  .00006381  00000+0  13703-2 0  9993",
        "tle_line2": "2 40810  74.0365  82.4401 0018646 234.2275 125.7157 14.58674217616241"
      },
      "geometry": {
        "type": "Point",
        "coordinates": [
          76.11461009398509,
          -14.490393326454955
        ]
      }
    },
    {
      "type": "Feature",
      "properties": {
        "norad_id": 46271,
        "name": "COSMOS 2251 DEB",
        "group": "cosmos-2251-debris",
        "lat": -54.65727600811924,
        "lon": 59.97882803307041,
        "alt_km": 730.7686933421837,
        "timestamp": "2025-12-09T18:55:17.630180+00:00",
        "meta_object_name": "COSMOS 2251 DEB",
        "meta_object_id": "1993-036BWT",
        "meta_epoch": "2025-12-08T00:10:45.560064",
        "meta_mean_motion": 14.51405587,
        "meta_eccentricity": 0.00404406,
        "meta_inclination": 74.0478,
        "meta_ra_of_asc_node": 87.1139,
        "meta_arg_of_pericenter": 209.4718,
        "meta_mean_anomaly": 150.4163,
        "meta_ephemeris_type": 0,
        "meta_classification_type": "U",
        "meta_norad_cat_id": 46271,
        "meta_element_set_no": 999,
        "meta_rev_at_epoch": 84573,
        "meta_bstar": 0.00060716032,
        "meta_mean_motion_dot": 2.42e-05,
        "meta_mean_motion_ddot": 0,
        "tle_line1": "1 46271U 93036BWT 25342.00747176  .00002420  00000+0  60716-3 0  9999",
        "tle_line2": "2 46271  74.0478  87.1139 0040440 209.4718 150.4163 14.51405587845731"
      },
      "geometry": {
        "type": "Point",
        "coordinates": [
          59.97882803307041,
          -54.65727600811924
        ]
      }
    }
  ]
}